{"type": "FeatureCollection", "features": [ {"type": "Feature", "properties": {"norad_id": 31185, "name": "FENGYUN 1C DEB", "group": "fengyun-1c-debris", "lat": -33.34742394174573, "lon": -14.148164355354927, "alt_km": 915.170732906643, "timestamp": "2025-12-09T09:46:47.926790+00:00", "meta": {"OBJECT_NAME": "FENGYUN 1C DEB", "OBJECT_ID": "1999-025BJP", "EPOCH": "2025-12-03T06:44:56.905152", "MEAN_MOTION": 14.03019915, "ECCENTRICITY": 0.0041359, "INCLINATION": 98.8321, "RA_OF_ASC_NODE": 334.0356, "ARG_OF_PERICENTER": 132.5488, "MEAN_ANOMALY": 227.9182, "EPHEMERIS_TYPE": 0, "CLASSIFICATION_TYPE": "U", "NORAD_CAT_ID": 31185, "ELEMENT_SET_NO": 999, "REV_AT_EPOCH": 62204, "BSTAR": 0.0004459, "MEAN_MOTION_DOT": 6.55e-06, "MEAN_MOTION_DDOT": 0}, "tle": {"line1": "1 31185U 99025BJP 25337.28121418  .00000655  00000+0  44590-3 0  9990", "line2": "2 31185  98.8321 334.0356 0041359 132.5488 227.9182 14.03019915622046"}}, "geometry": {"type": "Point", "coordinates": [-14.148164355354927, -33.34742394174573]}}, {"type": "Feature", "properties": {"norad_id": 31186, "name": "FENGYUN 1C DEB", "group": "fengyun-1c-debris", "lat": 30.763659963463887, "lon": -106.8380321975414, "alt_km": 833.078711754978, "timestamp": "2025-12-09T09:46:47.926801+00:00", "meta": {"OBJECT_NAME": "FENGYUN 1C DEB", "OBJECT_ID": "1999-025BJQ", "EPOCH": "2025-12-07T00:08:36.055104", "MEAN_MOTION": 14.12891869, "ECCENTRICITY": 0.00265947, "INCLINATION": 99.1777, "RA_OF_ASC_NODE": 256.2241, "ARG_OF_PERICENTER": 78.4554, "MEAN_ANOMALY": 344.6063, "EPHEMERIS_TYPE": 0, "CLASSIFICATION_TYPE": "U", "NORAD_CAT_ID": 31186, "ELEMENT_SET_NO": 999, "REV_AT_EPOCH": 96024, "BSTAR": 0.00076036897, "MEAN_MOTION_DOT": 1.373e-05, "MEAN_MOTION_DDOT": 0}, "tle": {"line1": "1 31186U 99025BJQ 25341.00597286  .00001373  00000+0  76037-3 0  9995", "line2": "2 31186  99.1777 256.2241 0026594  78.4554 344.6063 14.12891869960248"}}, "geometry": {"type": "Point", "coordinates": [-106.8380321975414, 30.763659963463887]}}, {"type": "Feature", "properties": {"norad_id": 31187, "name": "FENGYUN 1C DEB", "group": "fengyun-1c-debris", "lat": 80.11841703669583, "lon": 137.30143613980405, "alt_km": 819.1026249069037, "timestamp": "2025-12-09T09:46:47.926811+00:00", "meta": {"OBJECT_NAME": "FENGYUN 1C DEB", "OBJECT_ID": "1999-025BJR", "EPOCH": "2025-12-08T20:12:10.911744", "MEAN_MOTION": 14.59115549, "ECCENTRICITY": 0.0220937, "INCLINATION": 99.2414, "RA_OF_ASC_NODE": 205.8443, "ARG_OF_PERICENTER": 235.6153, "MEAN_ANOMALY": 122.3976, "EPHEMERIS_TYPE": 0, "CLASSIFICATION_TYPE": "U", "NORAD_CAT_ID": 31187, "ELEMENT_SET_NO": 999, "REV_AT_EPOCH": 69043, "BSTAR": 0.0048964173, "MEAN_MOTION_DOT": 0.00032491, "MEAN_MOTION_DDOT": 0}, "tle": {"line1": "1 31187U 99025BJR 25342.84179296  .00032491  00000+0  48964-2 0  9998", "line2": "2 31187  99.2414 205.8443 0220937 235.6153 122.3976 14.59115549690431"}}, "geometry": {"type": "Point", "coordinates": [137.30143613980405, 80.11841703669583]}}, {"type": "Feature", "properties": {"norad_id": 31188, "name": "FENGYUN 1C DEB", "group": "fengyun-1c-debris", "lat": -52.084502202915466, "lon": 62.613333152171705, "alt_km": 790.6068159469205, "timestamp": "2025-12-09T09:46:47.926822+00:00", "meta": {"OBJECT_NAME": "FENGYUN 1C DEB", "OBJECT_ID": "1999-025BJS", "EPOCH": "2025-12-08T20:46:55.032672", "MEAN_MOTION": 14.23782566, "ECCENTRICITY": 0.00598169, "INCLINATION": 98.7486, "RA_OF_ASC_NODE": 50.6724, "ARG_OF_PERICENTER": 260.6103, "MEAN_ANOMALY": 151.6071, "EPHEMERIS_TYPE": 0, "CLASSIFICATION_TYPE": "U", "NORAD_CAT_ID": 31188, "ELEMENT_SET_NO": 999, "REV_AT_EPOCH": 96281, "BSTAR": 0.0018395789, "MEAN_MOTION_DOT": 4.241e-05, "MEAN_MOTION_DDOT": 0}, "tle": {"line1": "1 31188U 99025BJS 25342.86591473  .00004241  00000+0  18396-2 0  9994", "line2": "2 31188  98.7486  50.6724 0059816 260.6103 151.6071 14.23782566962817"}}, "geometry": {"type": "Point", "coordinates": [62.613333152171705, -52.084502202915466]}}, {"type": "Feature", "properties": {"norad_id": 31190, "name": "FENGYUN 1C DEB", "group": "fengyun-1c-debris", "lat": -11.985311807243127, "lon": -1.877135464782659, "alt_km": 876.1604074851184, "timestamp": "2025-12-09T09:46:47.926832+00:00", "meta": {"OBJECT_NAME": "FENGYUN 1C DEB", "OBJECT_ID": "1999-025BJU", "EPOCH": "2025-12-08T18:26:23.655840", "MEAN_MOTION": 14.03585649, "ECCENTRICITY": 0.00674931, "INCLINATION": 98.8187, "RA_OF_ASC_NODE": 355.6145, "ARG_OF_PERICENTER": 270.6253, "MEAN_ANOMALY": 88.7181, "EPHEMERIS_TYPE": 0, "CLASSIFICATION_TYPE": "U", "NORAD_CAT_ID": 31190, "ELEMENT_SET_NO": 999, "REV_AT_EPOCH": 95491, "BSTAR": 0.0013180763, "MEAN_MOTION_DOT": 2.067e-05, "MEAN_MOTION_DDOT": 0}, "tle": {"line1": "1 31190U 99025BJU 25342.76832935  .00002067  00000+0  13181-2 0  9998", "line2": "2 31190  98.8187 355.6145 0067493 270.6253  88.7181 14.03585649954916"}}, "geometry": {"type": "Point", "coordinates": [-1.877135464782659, -11.985311807243127]}}, {"type": "Feature", "properties": {"norad_id": 31191, "name": "FENGYUN 1C DEB", "group": "fengyun-1c-debris", "lat": 46.60645488506152, "lon": 73.61934568125986, "alt_km": 730.8432754383857, "timestamp": "2025-12-09T09:46:47.926842+00:00", "meta": {"OBJECT_NAME": "FENGYUN 1C DEB", "OBJECT_ID": "1999-025BJV", "EPOCH": "2025-12-08T16:29:33.415584", "MEAN_MOTION": 14.40778141, "ECCENTRICITY": 0.00920708, "INCLINATION": 98.7825, "RA_OF_ASC_NODE": 243.4688, "ARG_OF_PERICENTER": 206.6372, "MEAN_ANOMALY": 153.007, "EPHEMERIS_TYPE": 0, "CLASSIFICATION_TYPE": "U", "NORAD_CAT_ID": 31191, "ELEMENT_SET_NO": 999, "REV_AT_EPOCH": 97954, "BSTAR": 0.00066729619, "MEAN_MOTION_DOT": 2.196e-05, "MEAN_MOTION_DDOT": 0}, "tle": {"line1": "1 31191U 99025BJV 25342.68719231  .00002196  00000+0  66730-3 0  9995", "line2": "2 31191  98.7825 243.4688 0092070 206.6372 153.0070 14.40778141979542"}}, "geometry": {"type": "Point", "coordinates": [73.61934568125986, 46.60645488506152]}}, {"type": "Feature", "properties": {"norad_id": 31192, "name": "FENGYUN 1C DEB", "group": "fengyun-1c-debris", "lat": -80.4777936150063, "lon": 30.98906909793143, "alt_km": 1005.514770939436, "timestamp": "2025-12-09T09:46:47.926853+00:00", "meta": {"OBJECT_NAME": "FENGYUN 1C DEB", "OBJECT_ID": "1999-025BJW", "EPOCH": "2025-12-06T09:31:52.381920", "MEAN_MOTION": 14.20945151, "ECCENTRICITY": 0.02595651, "INCLINATION": 98.5531, "RA_OF_ASC_NODE": 324.2808, "ARG_OF_PERICENTER": 122.0726, "MEAN_ANOMALY": 240.594, "EPHEMERIS_TYPE": 0, "CLASSIFICATION_TYPE": "U", "NORAD_CAT_ID": 31192, "ELEMENT_SET_NO": 999, "REV_AT_EPOCH": 96653, "BSTAR": 0.00046164619, "MEAN_MOTION_DOT": 1.361e-05, "MEAN_MOTION_DDOT": 0}, "tle": {"line1": "1 31192U 99025BJW 25340.39713405  .00001361  00000+0  46165-3 0  9992", "line2": "2 31192  98.5531 324.2808 0259565 122.0726 240.5940 14.20945151966533"}}, "geometry": {"type": "Point", "coordinates": [30.98906909793143, -80.4777936150063]}}, {"type": "Feature", "properties": {"norad_id": 31194, "name": "FENGYUN 1C DEB", "group": "fengyun-1c-debris", "lat": 9.872950133557634, "lon": -129.23476546017483, "alt_km": 764.5430727310495, "timestamp": "2025-12-09T09:46:47.926863+00:00", "meta": {"OBJECT_NAME": "FENGYUN 1C DEB", "OBJECT_ID": "1999-025BJY", "EPOCH": "2025-12-08T15:20:48.478272", "MEAN_MOTION": 14.36612267, "ECCENTRICITY": 0.00576183, "INCLINATION": 98.9629, "RA_OF_ASC_NODE": 231.5402, "ARG_OF_PERICENTER": 291.4004, "MEAN_ANOMALY": 68.104, "EPHEMERIS_TYPE": 0, "CLASSIFICATION_TYPE": "U", "NORAD_CAT_ID": 31194, "ELEMENT_SET_NO": 999, "REV_AT_EPOCH": 97068, "BSTAR": 0.0017845101, "MEAN_MOTION_DOT": 5.305e-05, "MEAN_MOTION_DDOT": 0}, "tle": {"line1": "1 31194U 99025BJY 25342.63944998  .00005305  00000+0  17845-2 0  9990", "line2": "2 31194  98.9629 231.5402 0057618 291.4004  68.1040 14.36612267970684"}}, "geometry": {"type": "Point", "coordinates": [-129.23476546017483, 9.872950133557634]}}, {"type": "Feature", "properties": {"norad_id": 31195, "name": "FENGYUN 1C DEB", "group": "fengyun-1c-debris", "lat": 38.931703435110364, "lon": -156.0127012171149, "alt_km": 782.3240160599107, "timestamp": "2025-12-09T09:46:47.926873+00:00", "meta": {"OBJECT_NAME": "FENGYUN 1C DEB", "OBJECT_ID": "1999-025BJZ", "EPOCH": "2025-12-07T19:35:03.175008", "MEAN_MOTION": 14.07975963, "ECCENTRICITY": 0.0171658, "INCLINATION": 98.7796, "RA_OF_ASC_NODE": 15.2673, "ARG_OF_PERICENTER": 195.0493, "MEAN_ANOMALY": 164.5533, "EPHEMERIS_TYPE": 0, "CLASSIFICATION_TYPE": "U", "NORAD_CAT_ID": 31195, "ELEMENT_SET_NO": 999, "REV_AT_EPOCH": 96029, "BSTAR": 0.00034191193, "MEAN_MOTION_DOT": 6.22e-06, "MEAN_MOTION_DDOT": 0}, "tle": {"line1": "1 31195U 99025BJZ 25341.81600897  .00000622  00000+0  34191-3 0  9998", "line2": "2 31195  98.7796  15.2673 0171658 195.0493 164.5533 14.07975963960294"}}, "geometry": {"type": "Point", "coordinates": [-156.0127012171149, 38.931703435110364]}}, {"type": "Feature", "properties": {"norad_id": 31196, "name": "FENGYUN 1C DEB", "group": "fengyun-1c-debris", "lat": -57.33592429857351, "lon": 163.19022081825483, "alt_km": 774.2068958740583, "timestamp": "2025-12-09T09:46:47.926884+00:00", "meta": {"OBJECT_NAME": "FENGYUN 1C DEB", "OBJECT_ID": "1999-025BKA", "EPOCH": "2025-12-08T19:11:13.432992", "MEAN_MOTION": 14.25445822, "ECCENTRICITY": 0.00577315, "INCLINATION": 98.5268, "RA_OF_ASC_NODE": 356.1324, "ARG_OF_PERICENTER": 223.7518, "MEAN_ANOMALY": 135.908, "EPHEMERIS_TYPE": 0, "CLASSIFICATION_TYPE": "U", "NORAD_CAT_ID": 31196, "ELEMENT_SET_NO": 999, "REV_AT_EPOCH": 63439, "BSTAR": 0.00095478472, "MEAN_MOTION_DOT": 2.251e-05, "MEAN_MOTION_DDOT": 0}, "tle": {"line1": "1 31196U 99025BKA 25342.79946103  .00002251  00000+0  95478-3 0  9995", "line2": "2 31196  98.5268 356.1324 0057731 223.7518 135.9080 14.25445822634393"}}, "geometry": {"type": "Point", "coordinates": [163.19022081825483, -57.33592429857351]}}]}